COSMOS 2419 (714)       
1 28915U 05050A   16355.40863376 -.00000059  00000-0  00000+0 0  9996
2 28915  65.4091  71.8800 0014585 351.3933  92.9757  2.13109020 85523
COSMOS 2425 (716)       
1 29670U 06062A   16354.61404968 -.00000038  00000-0  10000-3 0  9991
2 29670  65.5499 310.9152 0022246 339.2959 270.6754  2.13104973 77703
COSMOS 2426 (717)       
1 29671U 06062B   16355.42762274 -.00000042  00000-0  10000-3 0  9994
2 29671  65.5667 310.9733 0016452 173.1181 200.5844  2.13103071 77733
COSMOS 2424 (715)       
1 29672U 06062C   16354.94223295 -.00000039  00000-0  10000-3 0  9992
2 29672  65.5515 310.9146 0015850 172.4325   4.7424  2.13102127 77714
COSMOS 2433 (720)       
1 32275U 07052A   16354.66459413 -.00000053  00000-0  10000-3 0  9993
2 32275  65.4241  71.6808 0003085 242.6404 238.2742  2.13104995 71225
COSMOS 2432 (719)       
1 32276U 07052B   16355.44452038 -.00000059  00000-0  10000-3 0  9993
2 32276  65.4370  71.7226 0010681 333.3973 339.1890  2.13104084 71238
COSMOS 2434 (721)       
1 32393U 07065A   16355.41757027 -.00000043  00000-0  00000+0 0  9998
2 32393  65.1671 310.1223 0001645 133.5833  95.6685  2.13102832 69941
COSMOS 2436 (723)       
1 32395U 07065C   16353.28055662 -.00000035  00000-0  10000-3 0  9995
2 32395  65.1747 310.2390 0014301 352.5109  85.0629  2.13103394 69838
COSMOS 2443 (725)       
1 33379U 08046B   16355.18531682 -.00000058  00000-0  00000+0 0  9990
2 33379  65.3533  71.0621 0016704 185.9319 237.0737  2.13101952 64107
COSMOS 2456 (730)       
1 36111U 09070A   16355.11307174  .00000072  00000-0  00000+0 0  9990
2 36111  64.1786 189.7017 0003419 346.3082 179.7479  2.13102954 54608
COSMOS 2457 (733)       
1 36112U 09070B   16354.76191969  .00000068  00000-0  00000-0 0  9990
2 36112  64.1617 189.6361 0007165 148.9552 237.1098  2.13101684 54608
COSMOS 2458 (734)       
1 36113U 09070C   16355.31048243  .00000074  00000-0  10000-3 0  9990
2 36113  64.1670 189.6236 0002915  57.1537  77.4355  2.13101954 54613
COSMOS 2459 (731)       
1 36400U 10007A   16355.23447899 -.00000059  00000-0  10000-3 0  9996
2 36400  65.3324  70.7887 0026672 352.0778  69.6997  2.13102217 52967
COSMOS 2461 (735)       
1 36401U 10007B   16355.09170833 -.00000058  00000-0  10000-3 0  9991
2 36401  65.3250  70.7725 0005863  78.5391 144.3074  2.13102178 52959
COSMOS 2460 (732)       
1 36402U 10007C   16355.38071251 -.00000060  00000-0  10000-3 0  9991
2 36402  65.3165  70.7390 0000862 192.4088 293.7255  2.13101880 52966
COSMOS 2465 (737)       
1 37138U 10041B   16355.35733476 -.00000044  00000-0  00000+0 0  9994
2 37138  64.7660 310.2022 0034856 175.5551  50.8729  2.13103427 49038
COSMOS 2464 (736)       
1 37139U 10041C   16355.14982096 -.00000042  00000-0  00000+0 0  9994
2 37139  64.7723 310.2076 0022816   6.0100 245.5488  2.13102648 49038
COSMOS 2471 (701K)      
1 37372U 11009A   16355.44613844 -.00000060  00000-0  00000+0 0  9993
2 37372  65.3135  70.6843 0008477 230.7818  78.7643  2.13102866 45238
COSMOS 2474 (742)       
1 37829U 11055A   16354.75827422  .00000068  00000-0  00000-0 0  9991
2 37829  64.5032 190.2029 0006056 244.2990 230.1434  2.13101935 40591
COSMOS 2476 (744)       
1 37867U 11064A   16354.58905376  .00000066  00000-0  00000+0 0  9996
2 37867  64.4825 190.2853 0015193 241.9561 148.5498  2.13101982 39948
COSMOS 2477 (745)       
1 37868U 11064B   16354.69071005  .00000067  00000-0  00000+0 0  9993
2 37868  64.4903 190.3245 0013110 243.1856  44.5465  2.13101881 39891
COSMOS 2475 (743)       
1 37869U 11064C   16354.77007339  .00000068  00000-0  00000+0 0  9993
2 37869  64.4992 190.3113 0018041 274.4775  30.4429  2.13102159 39904
COSMOS 2485 (747)       
1 39155U 13019A   16355.43554522  .00000076  00000-0  00000+0 0  9999
2 39155  64.6517 190.2476 0015668 235.8365 129.1651  2.13102032 28437
COSMOS 2492 (754)       
1 39620U 14012A   16355.44236067 -.00000061  00000-0  10000-3 0  9992
2 39620  65.2056  70.6977 0014178 329.1538  74.7961  2.13103493 21388
COSMOS 2500 (755)       
1 40001U 14032A   16355.17183501 -.00000059  00000-0  00000+0 0  9995
2 40001  65.1464  70.7180 0007069 204.4046 215.4083  2.13102815 19598
COSMOS 2501 (702K)      
1 40315U 14075A   16354.67363348 -.00000041  00000-0  00000+0 0  9994
2 40315  64.4999 311.6286 0015570 215.8939 349.8627  2.13100579 15988
COSMOS 2514 (751)       
1 41330U 16008A   16355.45026855 -.00000061  00000-0  00000+0 0  9998
2 41330  64.9468  70.8970 0010246 213.1875 239.7589  2.13103464  6767
COSMOS 2516 (753)       
1 41554U 16032A   16354.74294147 -.00000040  00000-0  00000-0 0  9993
2 41554  64.7189 311.3411 0013137 231.8555 292.0741  2.13101644  4353
